{"type": "FeatureCollection", "features": [ {"type": "Feature", "properties": {"norad_id": 66663, "name": "KSLV-II R/B", "group": "last-30-days", "lat": 82.1720775929114, "lon": 170.1942566430313, "alt_km": 580.8280432362817, "timestamp": "2025-12-07T03:52:31.205369+00:00", "meta": {"OBJECT_NAME": "KSLV-II R/B", "OBJECT_ID": "2025-274P", "EPOCH": "2025-12-05T12:58:33.614976", "MEAN_MOTION": 14.97210966, "ECCENTRICITY": 0.00473649, "INCLINATION": 97.7405, "RA_OF_ASC_NODE": 266.9508, "ARG_OF_PERICENTER": 343.4564, "MEAN_ANOMALY": 16.5109, "EPHEMERIS_TYPE": 0, "CLASSIFICATION_TYPE": "U", "NORAD_CAT_ID": 66663, "ELEMENT_SET_NO": 999, "REV_AT_EPOCH": 133, "BSTAR": 0.0001343158, "MEAN_MOTION_DOT": 1.527e-05, "MEAN_MOTION_DDOT": 0}, "tle": {"line1": "1 66663U 25274P   25339.54066684  .00001527  00000+0  13432-3 0  9998", "line2": "2 66663  97.7405 266.9508 0047364 343.4564  16.5109 14.97210966  1334"}}, "geometry": {"type": "Point", "coordinates": [170.1942566430313, 82.1720775929114]}}, {"type": "Feature", "properties": {"norad_id": 66664, "name": "SOYUZ-MS 28", "group": "last-30-days", "lat": -24.91083720610038, "lon": 11.686319725649259, "alt_km": 419.42933536887085, "timestamp": "2025-12-07T03:52:31.205380+00:00", "meta": {"OBJECT_NAME": "SOYUZ-MS 28", "OBJECT_ID": "2025-275A", "EPOCH": "2025-12-06T13:01:49.374912", "MEAN_MOTION": 15.4936639, "ECCENTRICITY": 0.00035502, "INCLINATION": 51.6299, "RA_OF_ASC_NODE": 173.16, "ARG_OF_PERICENTER": 211.9909, "MEAN_ANOMALY": 148.0864, "EPHEMERIS_TYPE": 0, "CLASSIFICATION_TYPE": "U", "NORAD_CAT_ID": 66664, "ELEMENT_SET_NO": 999, "REV_AT_EPOCH": 128, "BSTAR": 0.00027332684, "MEAN_MOTION_DOT": 0.00014832, "MEAN_MOTION_DDOT": 0}, "tle": {"line1": "1 66664U 25275A   25340.54293258  .00014832  00000+0  27333-3 0  9999", "line2": "2 66664  51.6299 173.1600 0003550 211.9909 148.0864 15.49366390  1282"}}, "geometry": {"type": "Point", "coordinates": [11.686319725649259, -24.91083720610038]}}, {"type": "Feature", "properties": {"norad_id": 66820, "name": "KOMPSAT-7", "group": "last-30-days", "lat": 29.66610619499786, "lon": 111.52578912431116, "alt_km": 570.7411076444068, "timestamp": "2025-12-07T03:52:31.205391+00:00", "meta": {"OBJECT_NAME": "KOMPSAT-7", "OBJECT_ID": "2025-279A", "EPOCH": "2025-12-06T14:23:07.341792", "MEAN_MOTION": 14.98352979, "ECCENTRICITY": 0.00094976, "INCLINATION": 97.6392, "RA_OF_ASC_NODE": 286.5909, "ARG_OF_PERICENTER": 243.579, "MEAN_ANOMALY": 116.4458, "EPHEMERIS_TYPE": 0, "CLASSIFICATION_TYPE": "U", "NORAD_CAT_ID": 66820, "ELEMENT_SET_NO": 999, "REV_AT_EPOCH": 73, "BSTAR": 0.00038731982, "MEAN_MOTION_DOT": 4.562e-05, "MEAN_MOTION_DDOT": 0}, "tle": {"line1": "1 66820U 25279A   25340.59939053  .00004562  00000+0  38732-3 0  9996", "line2": "2 66820  97.6392 286.5909 0009497 243.5790 116.4458 14.98352979   734"}}, "geometry": {"type": "Point", "coordinates": [111.52578912431116, 29.66610619499786]}}, {"type": "Feature", "properties": {"norad_id": 66877, "name": "ZQ-3 R/B", "group": "last-30-days", "lat": -31.36681598603458, "lon": 55.42384250449915, "alt_km": 917.3385221254721, "timestamp": "2025-12-07T03:52:31.205404+00:00", "meta": {"OBJECT_NAME": "ZQ-3 R/B", "OBJECT_ID": "2025-282A", "EPOCH": "2025-12-06T14:47:06.585216", "MEAN_MOTION": 14.43941869, "ECCENTRICITY": 0.08438951, "INCLINATION": 56.9542, "RA_OF_ASC_NODE": 80.8481, "ARG_OF_PERICENTER": 209.4795, "MEAN_ANOMALY": 145.6015, "EPHEMERIS_TYPE": 0, "CLASSIFICATION_TYPE": "U", "NORAD_CAT_ID": 66877, "ELEMENT_SET_NO": 999, "REV_AT_EPOCH": 50, "BSTAR": 0.00027080381, "MEAN_MOTION_DOT": 0.01241586, "MEAN_MOTION_DDOT": 7.23249e-06}, "tle": {"line1": "1 66877U 25282A   25340.61604844  .01241586  72325-5  27080-3 0  9991", "line2": "2 66877  56.9542  80.8481 0843895 209.4795 145.6015 14.43941869   505"}}, "geometry": {"type": "Point", "coordinates": [55.42384250449915, -31.36681598603458]}}, {"type": "Feature", "properties": {"norad_id": 66906, "name": "1998-067XS", "group": "last-30-days", "lat": -33.07788377766229, "lon": 21.141855604077012, "alt_km": 418.1017393516868, "timestamp": "2025-12-07T03:52:31.205417+00:00", "meta": {"OBJECT_NAME": "1998-067XS", "OBJECT_ID": "1998-067XS", "EPOCH": "2025-12-06T14:32:06.723168", "MEAN_MOTION": 15.50122906, "ECCENTRICITY": 0.0004191, "INCLINATION": 51.6297, "RA_OF_ASC_NODE": 172.8292, "ARG_OF_PERICENTER": 176.5725, "MEAN_ANOMALY": 183.5293, "EPHEMERIS_TYPE": 0, "CLASSIFICATION_TYPE": "U", "NORAD_CAT_ID": 66906, "ELEMENT_SET_NO": 999, "REV_AT_EPOCH": 66, "BSTAR": 0.00066148009, "MEAN_MOTION_DOT": 0.00037648, "MEAN_MOTION_DDOT": 0}, "tle": {"line1": "1 66906U 98067XS  25340.60563337  .00037648  00000+0  66148-3 0  9999", "line2": "2 66906  51.6297 172.8292 0004191 176.5725 183.5293 15.50122906   662"}}, "geometry": {"type": "Point", "coordinates": [21.141855604077012, -33.07788377766229]}}, {"type": "Feature", "properties": {"norad_id": 66907, "name": "1998-067XT", "group": "last-30-days", "lat": -35.04921352827125, "lon": 23.833457455922268, "alt_km": 416.0881558469209, "timestamp": "2025-12-07T03:52:31.205428+00:00", "meta": {"OBJECT_NAME": "1998-067XT", "OBJECT_ID": "1998-067XT", "EPOCH": "2025-12-06T14:31:31.325088", "MEAN_MOTION": 15.5045482, "ECCENTRICITY": 0.00051917, "INCLINATION": 51.6295, "RA_OF_ASC_NODE": 172.8271, "ARG_OF_PERICENTER": 193.5378, "MEAN_ANOMALY": 166.5473, "EPHEMERIS_TYPE": 0, "CLASSIFICATION_TYPE": "U", "NORAD_CAT_ID": 66907, "ELEMENT_SET_NO": 999, "REV_AT_EPOCH": 66, "BSTAR": 0.0014185455, "MEAN_MOTION_DOT": 0.00082713, "MEAN_MOTION_DDOT": 0}, "tle": {"line1": "1 66907U 98067XT  25340.60522367  .00082713  00000+0  14185-2 0  9994", "line2": "2 66907  51.6295 172.8271 0005191 193.5378 166.5473 15.50454820   666"}}, "geometry": {"type": "Point", "coordinates": [23.833457455922268, -35.04921352827125]}}, {"type": "Feature", "properties": {"norad_id": 66908, "name": "1998-067XU", "group": "last-30-days", "lat": -35.58362930197025, "lon": 24.599743097475724, "alt_km": 415.84836539948446, "timestamp": "2025-12-07T03:52:31.205440+00:00", "meta": {"OBJECT_NAME": "1998-067XU", "OBJECT_ID": "1998-067XU", "EPOCH": "2025-12-06T09:52:54.497568", "MEAN_MOTION": 15.50486403, "ECCENTRICITY": 0.0005415, "INCLINATION": 51.6293, "RA_OF_ASC_NODE": 173.7848, "ARG_OF_PERICENTER": 192.211, "MEAN_ANOMALY": 167.8749, "EPHEMERIS_TYPE": 0, "CLASSIFICATION_TYPE": "U", "NORAD_CAT_ID": 66908, "ELEMENT_SET_NO": 999, "REV_AT_EPOCH": 63, "BSTAR": 0.0014263123, "MEAN_MOTION_DOT": 0.00083271, "MEAN_MOTION_DDOT": 0}, "tle": {"line1": "1 66908U 98067XU  25340.41174187  .00083271  00000+0  14263-2 0  9994", "line2": "2 66908  51.6293 173.7848 0005415 192.2110 167.8749 15.50486403   633"}}, "geometry": {"type": "Point", "coordinates": [24.599743097475724, -35.58362930197025]}}, {"type": "Feature", "properties": {"norad_id": 66909, "name": "1998-067XV", "group": "last-30-days", "lat": -35.715810363148286, "lon": 24.792118669786863, "alt_km": 415.8110621816322, "timestamp": "2025-12-07T03:52:31.205450+00:00", "meta": {"OBJECT_NAME": "1998-067XV", "OBJECT_ID": "1998-067XV", "EPOCH": "2025-12-06T14:31:18.459264", "MEAN_MOTION": 15.50547779, "ECCENTRICITY": 0.00052426, "INCLINATION": 51.6296, "RA_OF_ASC_NODE": 172.8258, "ARG_OF_PERICENTER": 193.8867, "MEAN_ANOMALY": 166.1979, "EPHEMERIS_TYPE": 0, "CLASSIFICATION_TYPE": "U", "NORAD_CAT_ID": 66909, "ELEMENT_SET_NO": 999, "REV_AT_EPOCH": 66, "BSTAR": 0.0015899979, "MEAN_MOTION_DOT": 0.00093198, "MEAN_MOTION_DDOT": 0}, "tle": {"line1": "1 66909U 98067XV  25340.60507476  .00093198  00000+0  15900-2 0  9995", "line2": "2 66909  51.6296 172.8258 0005242 193.8867 166.1979 15.50547779   660"}}, "geometry": {"type": "Point", "coordinates": [24.792118669786863, -35.715810363148286]}}, {"type": "Feature", "properties": {"norad_id": 66910, "name": "1998-067XW", "group": "last-30-days", "lat": -38.65941754263813, "lon": 29.38973232743907, "alt_km": 415.6818270944914, "timestamp": "2025-12-07T03:52:31.205462+00:00", "meta": {"OBJECT_NAME": "1998-067XW", "OBJECT_ID": "1998-067XW", "EPOCH": "2025-12-06T14:30:13.476960", "MEAN_MOTION": 15.50789302, "ECCENTRICITY": 0.00061597, "INCLINATION": 51.6294, "RA_OF_ASC_NODE": 172.8206, "ARG_OF_PERICENTER": 179.5377, "MEAN_ANOMALY": 180.5619, "EPHEMERIS_TYPE": 0, "CLASSIFICATION_TYPE": "U", "NORAD_CAT_ID": 66910, "ELEMENT_SET_NO": 999, "REV_AT_EPOCH": 66, "BSTAR": 0.0013604594, "MEAN_MOTION_DOT": 0.0008025, "MEAN_MOTION_DDOT": 0}, "tle": {"line1": "1 66910U 98067XW  25340.60432265  .00080250  00000+0  13605-2 0  9995", "line2": "2 66910  51.6294 172.8206 0006159 179.5377 180.5619 15.50789302   669"}}, "geometry": {"type": "Point", "coordinates": [29.38973232743907, -38.65941754263813]}}, {"type": "Feature", "properties": {"norad_id": 66911, "name": "1998-067XX", "group": "last-30-days", "lat": -39.05145003035856, "lon": 30.054339933606023, "alt_km": 415.4774947489368, "timestamp": "2025-12-07T03:52:31.205472+00:00", "meta": {"OBJECT_NAME": "1998-067XX", "OBJECT_ID": "1998-067XX", "EPOCH": "2025-12-06T14:30:06.081984", "MEAN_MOTION": 15.50869311, "ECCENTRICITY": 0.00060509, "INCLINATION": 51.6293, "RA_OF_ASC_NODE": 172.8204, "ARG_OF_PERICENTER": 180.1037, "MEAN_ANOMALY": 179.9952, "EPHEMERIS_TYPE": 0, "CLASSIFICATION_TYPE": "U", "NORAD_CAT_ID": 66911, "ELEMENT_SET_NO": 999, "REV_AT_EPOCH": 65, "BSTAR": 0.0015610395, "MEAN_MOTION_DOT": 0.00092556, "MEAN_MOTION_DDOT": 0}, "tle": {"line1": "1 66911U 98067XX  25340.60423706  .00092556  00000+0  15610-2 0  9996", "line2": "2 66911  51.6293 172.8204 0006050 180.1037 179.9952 15.50869311   658"}}, "geometry": {"type": "Point", "coordinates": [30.054339933606023, -39.05145003035856]}}]}